STARLINK-32554          
1 62136U 24222Y   26068.45286319  .00038071  00000+0  13848-2 0  9994
2 62136  42.9989 137.4392 0000074 293.9998  66.0845 15.27605364 72760
KUIPER-00208            
1 67775U 26030M   26068.67231509  .00043852  00000+0  13883-2 0  9994
2 67775  51.8846 219.6993 0015525  57.3146 302.9333 15.32208734  5080
