[{"OBJECT_NAME":"STARLINK-32554","OBJECT_ID":"2024-222Y","EPOCH":"2026-03-09T10:52:07.379616","MEAN_MOTION":15.27605364,"ECCENTRICITY":7.41e-6,"INCLINATION":42.9989,"RA_OF_ASC_NODE":137.4392,"ARG_OF_PERICENTER":293.9998,"MEAN_ANOMALY":66.0845,"EPHEMERIS_TYPE":0,"CLASSIFICATION_TYPE":"U","NORAD_CAT_ID":62136,"ELEMENT_SET_NO":999,"REV_AT_EPOCH":7276,"BSTAR":0.0013847958,"MEAN_MOTION_DOT":0.00038071,"MEAN_MOTION_DDOT":0},{"OBJECT_NAME":"KUIPER-00208","OBJECT_ID":"2026-030M","EPOCH":"2026-03-09T16:08:08.024640","MEAN_MOTION":15.32208734,"ECCENTRICITY":0.00155248,"INCLINATION":51.8846,"RA_OF_ASC_NODE":219.6993,"ARG_OF_PERICENTER":57.3146,"MEAN_ANOMALY":302.9333,"EPHEMERIS_TYPE":0,"CLASSIFICATION_TYPE":"U","NORAD_CAT_ID":67775,"ELEMENT_SET_NO":999,"REV_AT_EPOCH":508,"BSTAR":0.0013882708,"MEAN_MOTION_DOT":0.00043852,"MEAN_MOTION_DDOT":0}]
